CSS (TIANHE)            
1 48274U 21035A   24269.47644276  .00065496  00000+0  70924-3 0  9993
2 48274  41.4667 191.6008 0004687  21.2995 338.8039 15.62616841194786
